[{"OBJECT_NAME":"NOAA 18","OBJECT_ID":"2005-018A","EPOCH":"2026-04-01T19:50:38.288256","MEAN_MOTION":14.13715568,"ECCENTRICITY":0.0014349,"INCLINATION":98.8126,"RA_OF_ASC_NODE":172.6067,"ARG_OF_PERICENTER":12.6333,"MEAN_ANOMALY":347.5197,"EPHEMERIS_TYPE":0,"CLASSIFICATION_TYPE":"U","NORAD_CAT_ID":28654,"ELEMENT_SET_NO":999,"REV_AT_EPOCH":7552,"BSTAR":6.2439e-5,"MEAN_MOTION_DOT":7.4e-7,"MEAN_MOTION_DDOT":0},{"OBJECT_NAME":"NOAA 19","OBJECT_ID":"2009-005A","EPOCH":"2026-04-01T19:29:28.965120","MEAN_MOTION":14.13461259,"ECCENTRICITY":0.0012848,"INCLINATION":98.9565,"RA_OF_ASC_NODE":162.6174,"ARG_OF_PERICENTER":244.1451,"MEAN_ANOMALY":115.8396,"EPHEMERIS_TYPE":0,"CLASSIFICATION_TYPE":"U","NORAD_CAT_ID":33591,"ELEMENT_SET_NO":999,"REV_AT_EPOCH":88369,"BSTAR":5.8366e-5,"MEAN_MOTION_DOT":6.5e-7,"MEAN_MOTION_DDOT":0},{"OBJECT_NAME":"SUOMI NPP","OBJECT_ID":"2011-061A","EPOCH":"2026-04-01T20:42:16.937856","MEAN_MOTION":14.19499743,"ECCENTRICITY":0.0001882,"INCLINATION":98.7899,"RA_OF_ASC_NODE":33.2844,"ARG_OF_PERICENTER":149.743,"MEAN_ANOMALY":210.3854,"EPHEMERIS_TYPE":0,"CLASSIFICATION_TYPE":"U","NORAD_CAT_ID":37849,"ELEMENT_SET_NO":999,"REV_AT_EPOCH":74761,"BSTAR":7.0378e-5,"MEAN_MOTION_DOT":1.04e-6,"MEAN_MOTION_DDOT":0},{"OBJECT_NAME":"NOAA 20 (JPSS-1)","OBJECT_ID":"2017-073A","EPOCH":"2026-04-01T19:21:23.033376","MEAN_MOTION":14.19542066,"ECCENTRICITY":0.0001995,"INCLINATION":98.7719,"RA_OF_ASC_NODE":31.9676,"ARG_OF_PERICENTER":106.5941,"MEAN_ANOMALY":253.5454,"EPHEMERIS_TYPE":0,"CLASSIFICATION_TYPE":"U","NORAD_CAT_ID":43013,"ELEMENT_SET_NO":999,"REV_AT_EPOCH":43363,"BSTAR":6.3954e-5,"MEAN_MOTION_DOT":9.1e-7,"MEAN_MOTION_DDOT":0}]
