NOAA 18                 
1 28654U 05018A   26091.82683204  .00000074  00000+0  62439-4 0  9998
2 28654  98.8126 172.6067 0014349  12.6333 347.5197 14.13715568 75525
NOAA 19                 
1 33591U 09005A   26091.81214080  .00000065  00000+0  58366-4 0  9999
2 33591  98.9565 162.6174 0012848 244.1451 115.8396 14.13461259883699
SUOMI NPP               
1 37849U 11061A   26091.86269604  .00000104  00000+0  70378-4 0  9992
2 37849  98.7899  33.2844 0001882 149.7430 210.3854 14.19499743747613
NOAA 20 (JPSS-1)        
1 43013U 17073A   26091.80651659  .00000091  00000+0  63954-4 0  9997
2 43013  98.7719  31.9676 0001995 106.5941 253.5454 14.19542066433631
